TWILIGHT H              
1 67370U 26004H   26037.51505348  .00007005  00000+0  77862-3 0  9998
2 67370  97.7960  38.2206 0006242 203.6571 156.4359 14.87462963  3862
TWILIGHT J              
1 67371U 26004J   26037.50878282  .00007956  00000+0  87447-3 0  9993
2 67371  97.8002  38.2365 0005628 186.5100 173.6045 14.87882594  3860
ICEYE-X63               
1 67372U 26004K   26037.43708076  .00003575  00000+0  39555-3 0  9999
2 67372  97.7981  38.1712 0003898 180.3297 179.7918 14.87982060  3851
ICEYE-X64               
1 67373U 26004L   26037.51117487  .00003038  00000+0  34024-3 0  9999
2 67373  97.7994  38.2318 0005423 193.1059 167.0017 14.87584192  3868
AETHER-3                
1 67374U 26004M   26037.50535602  .00002611  00000+0  29075-3 0  9998
2 67374  97.7979  38.2346 0004187 181.1435 178.9773 14.87941916  3865
AETHER-4                
1 67375U 26004N   26037.43766301  .00002882  00000+0  32019-3 0  9995
2 67375  97.8016  38.1792 0004785 177.1343 182.9902 14.87963481  3859
AETHER-5                
1 67376U 26004P   26037.50750890  .00002750  00000+0  30695-3 0  9992
2 67376  97.8012  38.2408 0005102 183.3272 176.7911 14.87804259  3864
AETHER-6                
1 67377U 26004Q   26036.63062798 -.00251653  00000+0 -28936-1 0  9992
2 67377  97.8013  37.3851 0004629 129.8525 230.3099 14.87287400  3729
AETHER-7                
1 67378U 26004R   26037.44151395  .00002862  00000+0  31978-3 0  9991
2 67378  97.7986  38.1661 0004465 191.6538 168.4576 14.87736609  3849
AETHER-8                
1 67379U 26004S   26037.50858560  .00002690  00000+0  30082-3 0  9991
2 67379  97.7991  38.2345 0004996 188.6463 171.4668 14.87744461  3850
AETHER-9                
1 67380U 26004T   26037.50697374  .00002620  00000+0  29249-3 0  9993
2 67380  97.7983  38.2344 0004517 187.0841 173.0312 14.87844704  3859
AETHER-10               
1 67381U 26004U   26037.10137301 -.00238932  00000+0 -27452-1 0  9990
2 67381  97.8017  37.8505 0003166 142.3540 217.7899 14.87251054  3791
