CCSDS_OMM_VERS = 2.0
CREATION_DATE  = 
ORIGINATOR     = 

OBJECT_NAME    = TWILIGHT H
OBJECT_ID      = 2026-004H
CENTER_NAME    = EARTH
REF_FRAME      = TEME
TIME_SYSTEM    = UTC
MEAN_ELEMENT_THEORY = SGP/SGP4

EPOCH          = 2026-02-06T12:21:40.620672
MEAN_MOTION    = 14.87462963
ECCENTRICITY   = .0006242
INCLINATION    = 97.7960
RA_OF_ASC_NODE = 38.2206
ARG_OF_PERICENTER = 203.6571
MEAN_ANOMALY   = 156.4359

EPHEMERIS_TYPE = 0
CLASSIFICATION_TYPE = U
NORAD_CAT_ID   = 67370
ELEMENT_SET_NO = 999
REV_AT_EPOCH   = 386
BSTAR          = .77862E-3
MEAN_MOTION_DOT = .7005E-4
MEAN_MOTION_DDOT = 0

CCSDS_OMM_VERS = 2.0
CREATION_DATE  = 
ORIGINATOR     = 

OBJECT_NAME    = TWILIGHT J
OBJECT_ID      = 2026-004J
CENTER_NAME    = EARTH
REF_FRAME      = TEME
TIME_SYSTEM    = UTC
MEAN_ELEMENT_THEORY = SGP/SGP4

EPOCH          = 2026-02-06T12:12:38.835648
MEAN_MOTION    = 14.87882594
ECCENTRICITY   = .0005628
INCLINATION    = 97.8002
RA_OF_ASC_NODE = 38.2365
ARG_OF_PERICENTER = 186.5100
MEAN_ANOMALY   = 173.6045

EPHEMERIS_TYPE = 0
CLASSIFICATION_TYPE = U
NORAD_CAT_ID   = 67371
ELEMENT_SET_NO = 999
REV_AT_EPOCH   = 386
BSTAR          = .87447E-3
MEAN_MOTION_DOT = .7956E-4
MEAN_MOTION_DDOT = 0

CCSDS_OMM_VERS = 2.0
CREATION_DATE  = 
ORIGINATOR     = 

OBJECT_NAME    = ICEYE-X63
OBJECT_ID      = 2026-004K
CENTER_NAME    = EARTH
REF_FRAME      = TEME
TIME_SYSTEM    = UTC
MEAN_ELEMENT_THEORY = SGP/SGP4

EPOCH          = 2026-02-06T10:29:23.777664
MEAN_MOTION    = 14.87982060
ECCENTRICITY   = .0003898
INCLINATION    = 97.7981
RA_OF_ASC_NODE = 38.1712
ARG_OF_PERICENTER = 180.3297
MEAN_ANOMALY   = 179.7918

EPHEMERIS_TYPE = 0
CLASSIFICATION_TYPE = U
NORAD_CAT_ID   = 67372
ELEMENT_SET_NO = 999
REV_AT_EPOCH   = 385
BSTAR          = .39555E-3
MEAN_MOTION_DOT = .3575E-4
MEAN_MOTION_DDOT = 0

CCSDS_OMM_VERS = 2.0
CREATION_DATE  = 
ORIGINATOR     = 

OBJECT_NAME    = ICEYE-X64
OBJECT_ID      = 2026-004L
CENTER_NAME    = EARTH
REF_FRAME      = TEME
TIME_SYSTEM    = UTC
MEAN_ELEMENT_THEORY = SGP/SGP4

EPOCH          = 2026-02-06T12:16:05.508768
MEAN_MOTION    = 14.87584192
ECCENTRICITY   = .0005423
INCLINATION    = 97.7994
RA_OF_ASC_NODE = 38.2318
ARG_OF_PERICENTER = 193.1059
MEAN_ANOMALY   = 167.0017

EPHEMERIS_TYPE = 0
CLASSIFICATION_TYPE = U
NORAD_CAT_ID   = 67373
ELEMENT_SET_NO = 999
REV_AT_EPOCH   = 386
BSTAR          = .34024E-3
MEAN_MOTION_DOT = .3038E-4
MEAN_MOTION_DDOT = 0

CCSDS_OMM_VERS = 2.0
CREATION_DATE  = 
ORIGINATOR     = 

OBJECT_NAME    = AETHER-3
OBJECT_ID      = 2026-004M
CENTER_NAME    = EARTH
REF_FRAME      = TEME
TIME_SYSTEM    = UTC
MEAN_ELEMENT_THEORY = SGP/SGP4

EPOCH          = 2026-02-06T12:07:42.760128
MEAN_MOTION    = 14.87941916
ECCENTRICITY   = .0004187
INCLINATION    = 97.7979
RA_OF_ASC_NODE = 38.2346
ARG_OF_PERICENTER = 181.1435
MEAN_ANOMALY   = 178.9773

EPHEMERIS_TYPE = 0
CLASSIFICATION_TYPE = U
NORAD_CAT_ID   = 67374
ELEMENT_SET_NO = 999
REV_AT_EPOCH   = 386
BSTAR          = .29075E-3
MEAN_MOTION_DOT = .2611E-4
MEAN_MOTION_DDOT = 0

CCSDS_OMM_VERS = 2.0
CREATION_DATE  = 
ORIGINATOR     = 

OBJECT_NAME    = AETHER-4
OBJECT_ID      = 2026-004N
CENTER_NAME    = EARTH
REF_FRAME      = TEME
TIME_SYSTEM    = UTC
MEAN_ELEMENT_THEORY = SGP/SGP4

EPOCH          = 2026-02-06T10:30:14.084064
MEAN_MOTION    = 14.87963481
ECCENTRICITY   = .0004785
INCLINATION    = 97.8016
RA_OF_ASC_NODE = 38.1792
ARG_OF_PERICENTER = 177.1343
MEAN_ANOMALY   = 182.9902

EPHEMERIS_TYPE = 0
CLASSIFICATION_TYPE = U
NORAD_CAT_ID   = 67375
ELEMENT_SET_NO = 999
REV_AT_EPOCH   = 385
BSTAR          = .32019E-3
MEAN_MOTION_DOT = .2882E-4
MEAN_MOTION_DDOT = 0

CCSDS_OMM_VERS = 2.0
CREATION_DATE  = 
ORIGINATOR     = 

OBJECT_NAME    = AETHER-5
OBJECT_ID      = 2026-004P
CENTER_NAME    = EARTH
REF_FRAME      = TEME
TIME_SYSTEM    = UTC
MEAN_ELEMENT_THEORY = SGP/SGP4

EPOCH          = 2026-02-06T12:10:48.768960
MEAN_MOTION    = 14.87804259
ECCENTRICITY   = .0005102
INCLINATION    = 97.8012
RA_OF_ASC_NODE = 38.2408
ARG_OF_PERICENTER = 183.3272
MEAN_ANOMALY   = 176.7911

EPHEMERIS_TYPE = 0
CLASSIFICATION_TYPE = U
NORAD_CAT_ID   = 67376
ELEMENT_SET_NO = 999
REV_AT_EPOCH   = 386
BSTAR          = .30695E-3
MEAN_MOTION_DOT = .275E-4
MEAN_MOTION_DDOT = 0

CCSDS_OMM_VERS = 2.0
CREATION_DATE  = 
ORIGINATOR     = 

OBJECT_NAME    = AETHER-6
OBJECT_ID      = 2026-004Q
CENTER_NAME    = EARTH
REF_FRAME      = TEME
TIME_SYSTEM    = UTC
MEAN_ELEMENT_THEORY = SGP/SGP4

EPOCH          = 2026-02-05T15:08:06.257472
MEAN_MOTION    = 14.87287400
ECCENTRICITY   = .0004629
INCLINATION    = 97.8013
RA_OF_ASC_NODE = 37.3851
ARG_OF_PERICENTER = 129.8525
MEAN_ANOMALY   = 230.3099

EPHEMERIS_TYPE = 0
CLASSIFICATION_TYPE = U
NORAD_CAT_ID   = 67377
ELEMENT_SET_NO = 999
REV_AT_EPOCH   = 372
BSTAR          = -.28936E-1
MEAN_MOTION_DOT = -.251653E-2
MEAN_MOTION_DDOT = 0

CCSDS_OMM_VERS = 2.0
CREATION_DATE  = 
ORIGINATOR     = 

OBJECT_NAME    = AETHER-7
OBJECT_ID      = 2026-004R
CENTER_NAME    = EARTH
REF_FRAME      = TEME
TIME_SYSTEM    = UTC
MEAN_ELEMENT_THEORY = SGP/SGP4

EPOCH          = 2026-02-06T10:35:46.805280
MEAN_MOTION    = 14.87736609
ECCENTRICITY   = .0004465
INCLINATION    = 97.7986
RA_OF_ASC_NODE = 38.1661
ARG_OF_PERICENTER = 191.6538
MEAN_ANOMALY   = 168.4576

EPHEMERIS_TYPE = 0
CLASSIFICATION_TYPE = U
NORAD_CAT_ID   = 67378
ELEMENT_SET_NO = 999
REV_AT_EPOCH   = 384
BSTAR          = .31978E-3
MEAN_MOTION_DOT = .2862E-4
MEAN_MOTION_DDOT = 0

CCSDS_OMM_VERS = 2.0
CREATION_DATE  = 
ORIGINATOR     = 

OBJECT_NAME    = AETHER-8
OBJECT_ID      = 2026-004S
CENTER_NAME    = EARTH
REF_FRAME      = TEME
TIME_SYSTEM    = UTC
MEAN_ELEMENT_THEORY = SGP/SGP4

EPOCH          = 2026-02-06T12:12:21.795840
MEAN_MOTION    = 14.87744461
ECCENTRICITY   = .0004996
INCLINATION    = 97.7991
RA_OF_ASC_NODE = 38.2345
ARG_OF_PERICENTER = 188.6463
MEAN_ANOMALY   = 171.4668

EPHEMERIS_TYPE = 0
CLASSIFICATION_TYPE = U
NORAD_CAT_ID   = 67379
ELEMENT_SET_NO = 999
REV_AT_EPOCH   = 385
BSTAR          = .30082E-3
MEAN_MOTION_DOT = .269E-4
MEAN_MOTION_DDOT = 0

CCSDS_OMM_VERS = 2.0
CREATION_DATE  = 
ORIGINATOR     = 

OBJECT_NAME    = AETHER-9
OBJECT_ID      = 2026-004T
CENTER_NAME    = EARTH
REF_FRAME      = TEME
TIME_SYSTEM    = UTC
MEAN_ELEMENT_THEORY = SGP/SGP4

EPOCH          = 2026-02-06T12:10:02.531136
MEAN_MOTION    = 14.87844704
ECCENTRICITY   = .0004517
INCLINATION    = 97.7983
RA_OF_ASC_NODE = 38.2344
ARG_OF_PERICENTER = 187.0841
MEAN_ANOMALY   = 173.0312

EPHEMERIS_TYPE = 0
CLASSIFICATION_TYPE = U
NORAD_CAT_ID   = 67380
ELEMENT_SET_NO = 999
REV_AT_EPOCH   = 385
BSTAR          = .29249E-3
MEAN_MOTION_DOT = .262E-4
MEAN_MOTION_DDOT = 0

CCSDS_OMM_VERS = 2.0
CREATION_DATE  = 
ORIGINATOR     = 

OBJECT_NAME    = AETHER-10
OBJECT_ID      = 2026-004U
CENTER_NAME    = EARTH
REF_FRAME      = TEME
TIME_SYSTEM    = UTC
MEAN_ELEMENT_THEORY = SGP/SGP4

EPOCH          = 2026-02-06T02:25:58.628064
MEAN_MOTION    = 14.87251054
ECCENTRICITY   = .00031664
INCLINATION    = 97.8017
RA_OF_ASC_NODE = 37.8505
ARG_OF_PERICENTER = 142.3540
MEAN_ANOMALY   = 217.7899

EPHEMERIS_TYPE = 0
CLASSIFICATION_TYPE = U
NORAD_CAT_ID   = 67381
ELEMENT_SET_NO = 999
REV_AT_EPOCH   = 379
BSTAR          = -.27452089E-1
MEAN_MOTION_DOT = -.238932E-2
MEAN_MOTION_DDOT = 0

